[{"OBJECT_NAME":"STARLINK-35913","OBJECT_ID":"2025-293B","EPOCH":"2026-03-09T19:04:56.072352","MEAN_MOTION":14.98325516,"ECCENTRICITY":0.00036107,"INCLINATION":70.001,"RA_OF_ASC_NODE":94.1909,"ARG_OF_PERICENTER":271.7545,"MEAN_ANOMALY":88.32,"EPHEMERIS_TYPE":0,"CLASSIFICATION_TYPE":"U","NORAD_CAT_ID":67004,"ELEMENT_SET_NO":999,"REV_AT_EPOCH":1490,"BSTAR":0.00023817162,"MEAN_MOTION_DOT":2.75e-5,"MEAN_MOTION_DDOT":0},{"OBJECT_NAME":"NOAA 16 DEB","OBJECT_ID":"2000-055HK","EPOCH":"2026-03-09T11:22:55.184448","MEAN_MOTION":14.96713123,"ECCENTRICITY":0.00044813,"INCLINATION":98.9091,"RA_OF_ASC_NODE":257.3123,"ARG_OF_PERICENTER":226.904,"MEAN_ANOMALY":133.1803,"EPHEMERIS_TYPE":0,"CLASSIFICATION_TYPE":"U","NORAD_CAT_ID":41307,"ELEMENT_SET_NO":999,"REV_AT_EPOCH":53055,"BSTAR":0.0073865996,"MEAN_MOTION_DOT":0.00085329,"MEAN_MOTION_DDOT":0}]
